XRISM                   
1 57800U 23137A   26086.93163457  .00006112  00000+0  34432-3 0  9994
2 57800  31.0015 165.6537 0007961 222.9468 137.0550 15.11705198140555
ACS3                    
1 59588U 24077B   26086.85353596  .00024828  00000+0  19537-1 0  9990
2 59588  97.1965  23.8827 0072187  35.0301 325.5581 13.90429162 96721
SZ-21 MODULE            
1 66515U 25246C   26086.70196654  .00037039  00000+0  30140-3 0  9994
2 66515  41.4743  92.3645 0001454 209.3733 150.7028 15.69915920 20909
